{
    "links": {
        "self": "http://www.neowsapp.com/rest/v1/neo/3764889?api_key=iIulBulltgU6a56xZRHN4H3l9WmuAYTsLGpBGhQ2"
    },
    "id": "3764889",
    "neo_reference_id": "3764889",
    "name": "(2016 WC10)",
    "designation": "2016 WC10",
    "nasa_jpl_url": "http://ssd.jpl.nasa.gov/sbdb.cgi?sstr=3764889",
    "absolute_magnitude_h": 27.1,
    "estimated_diameter": {
        "kilometers": {
            "estimated_diameter_min": 0.0101054342,
            "estimated_diameter_max": 0.0225964377
        },
        "meters": {
            "estimated_diameter_min": 10.1054341542,
            "estimated_diameter_max": 22.5964377109
        },
        "miles": {
            "estimated_diameter_min": 0.0062792237,
            "estimated_diameter_max": 0.0140407711
        },
        "feet": {
            "estimated_diameter_min": 33.1543125905,
            "estimated_diameter_max": 74.1352966996
        }
    },
    "is_potentially_hazardous_asteroid": false,
    "close_approach_data": [
        {
            "close_approach_date": "2016-11-23",
            "close_approach_date_full": "2016-Nov-23 00:05",
            "epoch_date_close_approach": 1479859500000,
            "relative_velocity": {
                "kilometers_per_second": "9.4171437696",
                "kilometers_per_hour": "33901.7175706487",
                "miles_per_hour": "21065.2088982734"
            },
            "miss_distance": {
                "astronomical": "0.0073916453",
                "lunar": "2.8753500217",
                "kilometers": "1105774.392675511",
                "miles": "687096.3465276118"
            },
            "orbiting_body": "Earth"
        },
        {
            "close_approach_date": "2016-11-23",
            "close_approach_date_full": "2016-Nov-23 02:02",
            "epoch_date_close_approach": 1479866520000,
            "relative_velocity": {
                "kilometers_per_second": "10.3644231739",
                "kilometers_per_hour": "37311.9234259388",
                "miles_per_hour": "23184.1781976341"
            },
            "miss_distance": {
                "astronomical": "0.0094349003",
                "lunar": "3.6701762167",
                "kilometers": "1411440.988542361",
                "miles": "877028.7619161418"
            },
            "orbiting_body": "Moon"
        }
    ],
    "orbital_data": {
        "orbit_id": "2",
        "orbit_determination_date": "2017-04-06 08:21:47",
        "first_observation_date": "2016-11-28",
        "last_observation_date": "2016-11-30",
        "data_arc_in_days": 2,
        "observations_used": 25,
        "orbit_uncertainty": "8",
        "minimum_orbit_intersection": ".00479538",
        "jupiter_tisserand_invariant": "3.923",
        "epoch_osculation": "2457721.5",
        "eccentricity": ".4836419638259273",
        "semi_major_axis": "1.796834006104966",
        "inclination": "2.773589408048258",
        "ascending_node_longitude": "234.1640494149832",
        "orbital_period": "879.7522055037258",
        "perihelion_distance": ".927809678723152",
        "perihelion_argument": "150.4568424958627",
        "aphelion_distance": "2.66585833348678",
        "perihelion_time": "2457687.503419640583",
        "mean_anomaly": "13.91160926090829",
        "mean_motion": ".4092061352592715",
        "equinox": "J2000",
        "orbit_class": {
            "orbit_class_type": "APO",
            "orbit_class_description": "Near-Earth asteroid orbits which cross the Earth’s orbit similar to that of 1862 Apollo",
            "orbit_class_range": "a (semi-major axis) > 1.0 AU; q (perihelion) < 1.017 AU"
        }
    },
    "is_sentry_object": false
}